1 37673U 11024A   14040.01884802  .00000815  00000-0  13685-3 0  9994
2 37673 098.0124 049.0576 0001458 104.9535 311.2060 14.72298314143370
